{
    "type": "FeatureCollection",
    "features": [
        {
            "type": "Feature",
            "properties": {
                "Ringgaden": 1,
                "Ringvejen": 0
            },
            "geometry": {
                "type": "Polygon",
                "coordinates": [
                    [
                        [
                            10.188407,
                            56.144459
                        ],
                        [
                            10.194171,
                            56.125102
                        ],
                        [
                            10.263164,
                            56.150543
                        ],
                        [
                            10.221557,
                            56.174568
                        ],
                        [
                            10.218492,
                            56.178148
                        ],
                        [
                            10.214582,
                            56.174829
                        ],
                        [
                            10.204539,
                            56.171682
                        ],
                        [
                            10.198109,
                            56.170537
                        ],
                        [
                            10.190481,
                            56.167911
                        ],
                        [
                            10.182582,
                            56.161136
                        ],
                        [
                            10.182568,
                            56.156312
                        ],
                        [
                            10.183766,
                            56.149284
                        ],
                        [
                            10.188407,
                            56.144459
                        ]
                    ]
                ]
            },
            "bbox": [
                10.182568,
                56.125102,
                10.263164,
                56.178148
            ]
        },
        {
            "type": "Feature",
            "properties": {
                "Ringgaden": 0,
                "Ringvejen": 1
            },
            "geometry": {
                "type": "Polygon",
                "coordinates": [
                    [
                        [
                            10.262852,
                            56.150589
                        ],
                        [
                            10.218446,
                            56.188983
                        ],
                        [
                            10.204423,
                            56.184334
                        ],
                        [
                            10.192455,
                            56.181286
                        ],
                        [
                            10.179191,
                            56.176649
                        ],
                        [
                            10.16047,
                            56.172755
                        ],
                        [
                            10.158142,
                            56.171947
                        ],
                        [
                            10.152856,
                            56.168821
                        ],
                        [
                            10.147007,
                            56.164988
                        ],
                        [
                            10.144542,
                            56.162608
                        ],
                        [
                            10.143309,
                            56.160016
                        ],
                        [
                            10.143145,
                            56.157087
                        ],
                        [
                            10.143501,
                            56.154448
                        ],
                        [
                            10.144953,
                            56.151886
                        ],
                        [
                            10.148239,
                            56.149094
                        ],
                        [
                            10.15169,
                            56.146775
                        ],
                        [
                            10.154182,
                            56.140595
                        ],
                        [
                            10.156014,
                            56.135874
                        ],
                        [
                            10.157264,
                            56.132349
                        ],
                        [
                            10.159121,
                            56.130612
                        ],
                        [
                            10.160934,
                            56.129335
                        ],
                        [
                            10.162339,
                            56.128671
                        ],
                        [
                            10.194126,
                            56.125057
                        ],
                        [
                            10.262852,
                            56.150589
                        ]
                    ]
                ]
            },
            "bbox": [
                10.143145,
                56.125057,
                10.262852,
                56.188983
            ]
        }
    ]
}